CCSDS_OMM_VERS = 2.0
CREATION_DATE  = 
ORIGINATOR     = 

OBJECT_NAME    = STARLINK-36822
OBJECT_ID      = 2026-036F
CENTER_NAME    = EARTH
REF_FRAME      = TEME
TIME_SYSTEM    = UTC
MEAN_ELEMENT_THEORY = SGP/SGP4

EPOCH          = 2026-03-11T22:00:00.999936
MEAN_MOTION    = 15.76387392
ECCENTRICITY   = .00015677
INCLINATION    = 42.9992
RA_OF_ASC_NODE = 236.1443
ARG_OF_PERICENTER = 273.8663
MEAN_ANOMALY   = 66.3924

EPHEMERIS_TYPE = 0
CLASSIFICATION_TYPE = U
NORAD_CAT_ID   = 67909
ELEMENT_SET_NO = 999
REV_AT_EPOCH   = 400
BSTAR          = -.13142586E-1
MEAN_MOTION_DOT = -.18692E-1
MEAN_MOTION_DDOT = 0

CCSDS_OMM_VERS = 2.0
CREATION_DATE  = 
ORIGINATOR     = 

OBJECT_NAME    = STARLINK-36847
OBJECT_ID      = 2026-036G
CENTER_NAME    = EARTH
REF_FRAME      = TEME
TIME_SYSTEM    = UTC
MEAN_ELEMENT_THEORY = SGP/SGP4

EPOCH          = 2026-03-11T22:00:00.999936
MEAN_MOTION    = 15.75522979
ECCENTRICITY   = .00017123
INCLINATION    = 42.9993
RA_OF_ASC_NODE = 236.1444
ARG_OF_PERICENTER = 274.5976
MEAN_ANOMALY   = 65.4501

EPHEMERIS_TYPE = 0
CLASSIFICATION_TYPE = U
NORAD_CAT_ID   = 67910
ELEMENT_SET_NO = 999
REV_AT_EPOCH   = 400
BSTAR          = -.13605945E-1
MEAN_MOTION_DOT = -.1862967E-1
MEAN_MOTION_DDOT = 0

CCSDS_OMM_VERS = 2.0
CREATION_DATE  = 
ORIGINATOR     = 

OBJECT_NAME    = STARLINK-36736
OBJECT_ID      = 2026-036H
CENTER_NAME    = EARTH
REF_FRAME      = TEME
TIME_SYSTEM    = UTC
MEAN_ELEMENT_THEORY = SGP/SGP4

EPOCH          = 2026-03-11T21:59:25.556928
MEAN_MOTION    = 15.82125629
ECCENTRICITY   = .0001815
INCLINATION    = 42.9980
RA_OF_ASC_NODE = 236.0884
ARG_OF_PERICENTER = 265.6646
MEAN_ANOMALY   = 94.4019

EPHEMERIS_TYPE = 0
CLASSIFICATION_TYPE = U
NORAD_CAT_ID   = 67911
ELEMENT_SET_NO = 999
REV_AT_EPOCH   = 402
BSTAR          = .1362779E-2
MEAN_MOTION_DOT = .298043E-2
MEAN_MOTION_DDOT = 0

CCSDS_OMM_VERS = 2.0
CREATION_DATE  = 
ORIGINATOR     = 

OBJECT_NAME    = STARLINK-36676
OBJECT_ID      = 2026-036J
CENTER_NAME    = EARTH
REF_FRAME      = TEME
TIME_SYSTEM    = UTC
MEAN_ELEMENT_THEORY = SGP/SGP4

EPOCH          = 2026-03-11T21:58:21.901728
MEAN_MOTION    = 15.81980932
ECCENTRICITY   = .00022432
INCLINATION    = 42.9980
RA_OF_ASC_NODE = 236.0836
ARG_OF_PERICENTER = 267.2904
MEAN_ANOMALY   = 92.7711

EPHEMERIS_TYPE = 0
CLASSIFICATION_TYPE = U
NORAD_CAT_ID   = 67912
ELEMENT_SET_NO = 999
REV_AT_EPOCH   = 402
BSTAR          = .14097325E-3
MEAN_MOTION_DOT = .29204E-3
MEAN_MOTION_DDOT = 0

CCSDS_OMM_VERS = 2.0
CREATION_DATE  = 
ORIGINATOR     = 

OBJECT_NAME    = STARLINK-36690
OBJECT_ID      = 2026-036K
CENTER_NAME    = EARTH
REF_FRAME      = TEME
TIME_SYSTEM    = UTC
MEAN_ELEMENT_THEORY = SGP/SGP4

EPOCH          = 2026-03-11T21:57:17.113824
MEAN_MOTION    = 15.82071128
ECCENTRICITY   = .00018371
INCLINATION    = 42.9982
RA_OF_ASC_NODE = 236.0766
ARG_OF_PERICENTER = 5.2723
MEAN_ANOMALY   = 354.8168

EPHEMERIS_TYPE = 0
CLASSIFICATION_TYPE = U
NORAD_CAT_ID   = 67913
ELEMENT_SET_NO = 999
REV_AT_EPOCH   = 402
BSTAR          = .1189394E-2
MEAN_MOTION_DOT = .258188E-2
MEAN_MOTION_DDOT = 0

CCSDS_OMM_VERS = 2.0
CREATION_DATE  = 
ORIGINATOR     = 

OBJECT_NAME    = STARLINK-36724
OBJECT_ID      = 2026-036L
CENTER_NAME    = EARTH
REF_FRAME      = TEME
TIME_SYSTEM    = UTC
MEAN_ELEMENT_THEORY = SGP/SGP4

EPOCH          = 2026-03-11T20:24:12.243744
MEAN_MOTION    = 15.82180836
ECCENTRICITY   = .0001742
INCLINATION    = 42.9983
RA_OF_ASC_NODE = 236.4507
ARG_OF_PERICENTER = 327.9257
MEAN_ANOMALY   = 32.1509

EPHEMERIS_TYPE = 0
CLASSIFICATION_TYPE = U
NORAD_CAT_ID   = 67914
ELEMENT_SET_NO = 999
REV_AT_EPOCH   = 401
BSTAR          = .21408535E-2
MEAN_MOTION_DOT = .479839E-2
MEAN_MOTION_DDOT = 0

CCSDS_OMM_VERS = 2.0
CREATION_DATE  = 
ORIGINATOR     = 

OBJECT_NAME    = STARLINK-36723
OBJECT_ID      = 2026-036M
CENTER_NAME    = EARTH
REF_FRAME      = TEME
TIME_SYSTEM    = UTC
MEAN_ELEMENT_THEORY = SGP/SGP4

EPOCH          = 2026-03-11T21:56:11.584608
MEAN_MOTION    = 15.82125098
ECCENTRICITY   = .00019723
INCLINATION    = 42.9980
RA_OF_ASC_NODE = 236.0700
ARG_OF_PERICENTER = 247.4679
MEAN_ANOMALY   = 112.5985

EPHEMERIS_TYPE = 0
CLASSIFICATION_TYPE = U
NORAD_CAT_ID   = 67915
ELEMENT_SET_NO = 999
REV_AT_EPOCH   = 402
BSTAR          = .13935878E-2
MEAN_MOTION_DOT = .305036E-2
MEAN_MOTION_DDOT = 0

CCSDS_OMM_VERS = 2.0
CREATION_DATE  = 
ORIGINATOR     = 

OBJECT_NAME    = STARLINK-36721
OBJECT_ID      = 2026-036N
CENTER_NAME    = EARTH
REF_FRAME      = TEME
TIME_SYSTEM    = UTC
MEAN_ELEMENT_THEORY = SGP/SGP4

EPOCH          = 2026-03-11T22:00:00.999936
MEAN_MOTION    = 15.82027987
ECCENTRICITY   = .0001566
INCLINATION    = 42.9993
RA_OF_ASC_NODE = 236.0354
ARG_OF_PERICENTER = 271.6681
MEAN_ANOMALY   = 112.0680

EPHEMERIS_TYPE = 0
CLASSIFICATION_TYPE = U
NORAD_CAT_ID   = 67916
ELEMENT_SET_NO = 999
REV_AT_EPOCH   = 400
BSTAR          = -.74973462E-3
MEAN_MOTION_DOT = -.155686E-2
MEAN_MOTION_DDOT = 0

CCSDS_OMM_VERS = 2.0
CREATION_DATE  = 
ORIGINATOR     = 

OBJECT_NAME    = STARLINK-36722
OBJECT_ID      = 2026-036P
CENTER_NAME    = EARTH
REF_FRAME      = TEME
TIME_SYSTEM    = UTC
MEAN_ELEMENT_THEORY = SGP/SGP4

EPOCH          = 2026-03-10T20:07:27.647616
MEAN_MOTION    = 15.82148661
ECCENTRICITY   = .0002027
INCLINATION    = 42.9984
RA_OF_ASC_NODE = 242.6288
ARG_OF_PERICENTER = 314.2120
MEAN_ANOMALY   = 45.8585

EPHEMERIS_TYPE = 0
CLASSIFICATION_TYPE = U
NORAD_CAT_ID   = 67917
ELEMENT_SET_NO = 999
REV_AT_EPOCH   = 385
BSTAR          = .23594797E-2
MEAN_MOTION_DOT = .531298E-2
MEAN_MOTION_DDOT = 0

CCSDS_OMM_VERS = 2.0
CREATION_DATE  = 
ORIGINATOR     = 

OBJECT_NAME    = STARLINK-36341
OBJECT_ID      = 2026-036Q
CENTER_NAME    = EARTH
REF_FRAME      = TEME
TIME_SYSTEM    = UTC
MEAN_ELEMENT_THEORY = SGP/SGP4

EPOCH          = 2026-03-09T21:21:52.154208
MEAN_MOTION    = 15.82409136
ECCENTRICITY   = .0002259
INCLINATION    = 42.9987
RA_OF_ASC_NODE = 248.4207
ARG_OF_PERICENTER = 306.3888
MEAN_ANOMALY   = 53.6775

EPHEMERIS_TYPE = 0
CLASSIFICATION_TYPE = U
NORAD_CAT_ID   = 67918
ELEMENT_SET_NO = 999
REV_AT_EPOCH   = 370
BSTAR          = .33126E-2
MEAN_MOTION_DOT = .777423E-2
MEAN_MOTION_DDOT = 0

CCSDS_OMM_VERS = 2.0
CREATION_DATE  = 
ORIGINATOR     = 

OBJECT_NAME    = STARLINK-36663
OBJECT_ID      = 2026-036R
CENTER_NAME    = EARTH
REF_FRAME      = TEME
TIME_SYSTEM    = UTC
MEAN_ELEMENT_THEORY = SGP/SGP4

EPOCH          = 2026-03-11T21:51:52.569504
MEAN_MOTION    = 15.82104882
ECCENTRICITY   = .00018031
INCLINATION    = 42.9990
RA_OF_ASC_NODE = 236.0461
ARG_OF_PERICENTER = 272.4205
MEAN_ANOMALY   = 87.6461

EPHEMERIS_TYPE = 0
CLASSIFICATION_TYPE = U
NORAD_CAT_ID   = 67919
ELEMENT_SET_NO = 999
REV_AT_EPOCH   = 402
BSTAR          = .10362289E-2
MEAN_MOTION_DOT = .224338E-2
MEAN_MOTION_DDOT = 0

CCSDS_OMM_VERS = 2.0
CREATION_DATE  = 
ORIGINATOR     = 

OBJECT_NAME    = STARLINK-36375
OBJECT_ID      = 2026-036S
CENTER_NAME    = EARTH
REF_FRAME      = TEME
TIME_SYSTEM    = UTC
MEAN_ELEMENT_THEORY = SGP/SGP4

EPOCH          = 2026-03-10T20:04:13.073952
MEAN_MOTION    = 15.82109736
ECCENTRICITY   = .00006906
INCLINATION    = 42.9990
RA_OF_ASC_NODE = 242.6117
ARG_OF_PERICENTER = 277.9892
MEAN_ANOMALY   = 82.0901

EPHEMERIS_TYPE = 0
CLASSIFICATION_TYPE = U
NORAD_CAT_ID   = 67920
ELEMENT_SET_NO = 999
REV_AT_EPOCH   = 385
BSTAR          = .13842814E-2
MEAN_MOTION_DOT = .302702E-2
MEAN_MOTION_DDOT = 0

